NORAD_CAT_ID,OBJECT_NAME,OBJECT_TYPE,EPOCH,MEAN_MOTION,ECCENTRICITY,INCLINATION,RA_OF_ASC_NODE,ARG_OF_PERICENTER,MEAN_ANOMALY,BSTAR,MEAN_MOTION_DOT,MEAN_MOTION_DDOT,TLE_LINE0,TLE_LINE1,TLE_LINE2,SEMIMAJOR_AXIS,PERIOD,APOGEE,PERIGEE,DECAYED
52280.0,STARLINK-3764,PAYLOAD,2023-07-24 23:08:24,15.08842886,0.0001658,53.2191,93.0112,93.6005,266.5177,0.00010013,1.306e-05,0.0,0 STARLINK-3764,1 52280U 22041V   23205.96416707  .00001306  00000-0  10013-3 0  9996,2 52280  53.2191  93.0112 0001658  93.6005 266.5177 15.08842886 69637,6917.872,95.437,540.884,538.59,0.0
52280.0,STARLINK-3764,PAYLOAD,2023-07-25 22:59:11,15.08836829,0.000142,53.2179,88.5497,101.7705,258.3446,-4.0055e-06,-3.52e-06,0.0,0 STARLINK-3764,1 52280U 22041V   23206.95777255 -.00000352  00000-0 -40055-5 0  9997,2 52280  53.2179  88.5497 0001420 101.7705 258.3446 15.08836829 69787,6917.89,95.438,540.737,538.773,0.0
52280.0,STARLINK-3764,PAYLOAD,2023-07-26 16:28:25,15.0883945,0.0001161,53.2174,85.2783,91.4732,268.6393,0.00010207,1.337e-05,0.0,0 STARLINK-3764,1 52280U 22041V   23207.68640845  .00001337  00000-0  10207-3 0  9998,2 52280  53.2174  85.2783 0001161  91.4732 268.6393 15.08839450 69891,6917.882,95.438,540.55,538.944,0.0
52280.0,STARLINK-3764,PAYLOAD,2023-07-27 02:00:43,15.08853608,0.0001261,53.2176,83.4927,82.7476,277.3659,0.00021068,3.068e-05,0.0,0 STARLINK-3764,1 52280U 22041V   23208.08383667  .00003068  00000-0  21068-3 0  9999,2 52280  53.2176  83.4927 0001261  82.7476 277.3659 15.08853608 71179,6917.839,95.437,540.576,538.831,0.0
52280.0,STARLINK-3764,PAYLOAD,2023-07-27 08:22:17,15.08836346,0.0001105,53.2168,82.2988,66.7074,293.4034,6.7942e-05,7.94e-06,0.0,0 STARLINK-3764,1 52280U 22041V   23208.34881133  .00000794  00000-0  67942-4 0  9994,2 52280  53.2168  82.2988 0001105  66.7074 293.4034 15.08836346 71218,6917.892,95.438,540.521,538.992,0.0
52280.0,STARLINK-3764,PAYLOAD,2023-07-28 01:51:32,15.08831215,0.0001325,53.2174,79.0341,98.1376,261.9766,-4.52e-05,-1.007e-05,0.0,0 STARLINK-3764,1 52280U 22041V   23209.07745796 -.00001007  00000-0 -45200-4 0  9992,2 52280  53.2174  79.0341 0001325  98.1376 261.9766 15.08831215 71324,6917.907,95.438,540.689,538.856,0.0
52280.0,STARLINK-3764,PAYLOAD,2023-07-28 17:45:23,15.088421,0.0001281,53.2179,76.0606,102.1944,257.9192,1.5698e-05,-3.8e-07,0.0,0 STARLINK-3764,1 52280U 22041V   23209.73985424 -.00000038  00000-0  15698-4 0  9999,2 52280  53.2179  76.0606 0001281 102.1944 257.9192 15.08842100 71422,6917.874,95.437,540.625,538.853,0.0
52280.0,STARLINK-3764,PAYLOAD,2023-07-29 19:11:33,15.08841282,0.0001016,53.2164,71.3002,114.2952,245.8146,0.00028061,4.181e-05,0.0,0 STARLINK-3764,1 52280U 22041V   23210.79969736  .00004181  00000-0  28061-3 0  9994,2 52280  53.2164  71.3002 0001016 114.2952 245.8146 15.08841282 71585,6917.876,95.437,540.444,539.039,0.0
52280.0,STARLINK-3764,PAYLOAD,2023-07-29 23:57:42,15.08850652,0.0001097,53.2163,70.4094,102.8475,257.264,0.00037204,5.64e-05,0.0,0 STARLINK-3764,1 52280U 22041V   23210.99841421  .00005640  00000-0  37204-3 0  9996,2 52280  53.2163  70.4094 0001097 102.8475 257.2640 15.08850652 71618,6917.848,95.437,540.472,538.954,0.0
52280.0,STARLINK-3764,PAYLOAD,2023-07-30 17:26:57,15.08836016,0.0001116,53.2161,67.137,114.6412,245.4696,-8.4595e-05,-1.634e-05,0.0,0 STARLINK-3764,1 52280U 22041V   23211.72705817 -.00001634  00000-0 -84595-4 0  9993,2 52280  53.2161  67.1370 0001116 114.6412 245.4696 15.08836016 71720,6917.893,95.438,540.53,538.986,0.0
52280.0,STARLINK-3764,PAYLOAD,2023-07-30 20:37:43,15.08844521,0.0001253,53.2163,66.5402,121.2712,238.8403,2.286e-05,7.6e-07,0.0,0 STARLINK-3764,1 52280U 22041V   23211.85953567  .00000076  00000-0  22860-4 0  9998,2 52280  53.2163  66.5402 0001253 121.2712 238.8403 15.08844521 71744,6917.867,95.437,540.598,538.865,0.0
52280.0,STARLINK-3764,PAYLOAD,2023-08-01 18:43:55,15.08841471,0.0001038,53.2166,57.919,95.6813,264.4297,9.9071e-05,1.289e-05,0.0,0 STARLINK-3764,1 52280U 22041V   23213.78050051  .00001289  00000-0  99071-4 0  9993,2 52280  53.2166  57.9190 0001038  95.6813 264.4297 15.08841471 72032,6917.876,95.437,540.459,539.023,0.0
52280.0,STARLINK-3764,PAYLOAD,2023-08-02 23:20:51,15.08850684,0.0001079,53.2166,52.5662,94.8457,265.2658,0.00020915,3.043e-05,0.0,0 STARLINK-3764,1 52280U 22041V   23214.97281487  .00003043  00000-0  20915-3 0  9994,2 52280  53.2166  52.5662 0001079  94.8457 265.2658 15.08850684 72213,6917.848,95.437,540.459,538.966,0.0
52280.0,STARLINK-3764,PAYLOAD,2023-08-03 08:53:10,15.08837181,8.56e-05,53.2164,50.78,99.354,260.7549,5.3257e-05,5.6e-06,0.0,0 STARLINK-3764,1 52280U 22041V   23215.37026090  .00000560  00000-0  53257-4 0  9993,2 52280  53.2164  50.7800 0000856  99.3540 260.7549 15.08837181 72272,6917.889,95.438,540.346,539.162,0.0
52280.0,STARLINK-3764,PAYLOAD,2023-08-04 18:16:16,15.08839493,0.0001014,53.2176,44.5389,86.3269,273.7839,9.5061e-05,1.225e-05,0.0,0 STARLINK-3764,1 52280U 22041V   23216.76130497  .00001225  00000-0  95061-4 0  9992,2 52280  53.2176  44.5389 0001014  86.3269 273.7839 15.08839493 72486,6917.882,95.438,540.448,539.045,0.0
52280.0,STARLINK-3764,PAYLOAD,2023-08-05 18:07:03,15.08851642,0.0001106,53.2169,40.0783,91.9303,268.1816,0.00027591,4.107e-05,0.0,0 STARLINK-3764,1 52280U 22041V   23217.75489723  .00004107  00000-0  27591-3 0  9995,2 52280  53.2169  40.0783 0001106  91.9303 268.1816 15.08851642 72630,6917.845,95.437,540.475,538.945,0.0
52280.0,STARLINK-3764,PAYLOAD,2023-08-06 05:14:45,15.08839621,0.0001111,53.2169,37.9964,93.3482,266.7638,3.9381e-05,3.39e-06,0.0,0 STARLINK-3764,1 52280U 22041V   23218.21858165  .00000339  00000-0  39381-4 0  9991,2 52280  53.2169  37.9964 0001111  93.3482 266.7638 15.08839621 72703,6917.882,95.438,540.515,538.978,0.0
52280.0,STARLINK-3764,PAYLOAD,2023-08-06 17:57:51,15.08821925,9.71e-05,53.2166,35.6181,100.8526,259.2575,-0.00028847,-4.873e-05,0.0,0 STARLINK-3764,1 52280U 22041V   23218.74851074 -.00004873  00000-0 -28847-3 0  9994,2 52280  53.2166  35.6181 0000971 100.8526 259.2575 15.08821925 72785,6917.936,95.439,540.472,539.129,0.0
52280.0,STARLINK-3764,PAYLOAD,2023-08-07 05:05:33,15.08827497,9.96e-05,53.2167,33.5358,107.4972,252.6129,0.00026394,3.914e-05,0.0,0 STARLINK-3764,1 52280U 22041V   23219.21219477  .00003914  00000-0  26394-3 0  9990,2 52280  53.2167  33.5358 0000996 107.4972 252.6129 15.08827497 72854,6917.919,95.438,540.473,539.095,0.0
52280.0,STARLINK-3764,PAYLOAD,2023-08-07 17:48:39,15.08846617,9.66e-05,53.2167,31.1571,103.3795,256.7304,0.0012177,0.00019148,0.0,0 STARLINK-3764,1 52280U 22041V   23219.74211821  .00019148  00000-0  12177-2 0  9992,2 52280  53.2167  31.1571 0000966 103.3795 256.7304 15.08846617 72934,6917.86,95.437,540.393,539.057,0.0
52280.0,STARLINK-3764,PAYLOAD,2023-08-08 04:56:20,15.08855052,8.99e-05,53.2168,29.0756,100.4472,259.6622,0.0010027,0.00015713,0.0,0 STARLINK-3764,1 52280U 22041V   23220.20579644  .00015713  00000-0  10027-2 0  9991,2 52280  53.2168  29.0756 0000899 100.4472 259.6622 15.08855052 73008,6917.834,95.437,540.321,539.077,0.0
52280.0,STARLINK-3764,PAYLOAD,2023-08-08 17:39:25,15.08860356,8.98e-05,53.217,26.6967,97.3089,262.8005,0.0007536,0.00011733,0.0,0 STARLINK-3764,1 52280U 22041V   23220.73571200  .00011733  00000-0  75360-3 0  9999,2 52280  53.2170  26.6967 0000898  97.3089 262.8005 15.08860356 73087,6917.818,95.436,540.304,539.062,0.0
52280.0,STARLINK-3764,PAYLOAD,2023-08-09 06:22:30,15.08855755,0.0001442,53.2165,24.3187,88.8976,271.2182,0.00044679,6.833e-05,0.0,0 STARLINK-3764,1 52280U 22041V   23221.26562978  .00006833  00000-0  44679-3 0  9994,2 52280  53.2165  24.3187 0001442  88.8976 271.2182 15.08855755 73162,6917.832,95.437,540.695,538.7,0.0
52280.0,STARLINK-3764,PAYLOAD,2023-08-09 17:30:12,15.08847887,8.44e-05,53.2175,22.2366,77.6895,282.4191,0.00015687,2.21e-05,0.0,0 STARLINK-3764,1 52280U 22041V   23221.72931063  .00002210  00000-0  15687-3 0  9992,2 52280  53.2175  22.2366 0000844  77.6895 282.4191 15.08847887 73239,6917.856,95.437,540.305,539.137,0.0
52280.0,STARLINK-3764,PAYLOAD,2023-08-10 10:59:27,15.08842373,8.75e-05,53.2176,18.966,70.5628,289.5459,8.9696e-05,1.14e-05,0.0,0 STARLINK-3764,1 52280U 22041V   23222.45795167  .00001140  00000-0  89696-4 0  9999,2 52280  53.2176  18.9660 0000875  70.5628 289.5459 15.08842373 73341,6917.873,95.437,540.343,539.133,0.0
52280.0,STARLINK-3764,PAYLOAD,2023-08-11 17:11:46,15.08848349,9.38e-05,53.2175,13.3161,72.1517,287.9578,0.0002235,3.272e-05,0.0,0 STARLINK-3764,1 52280U 22041V   23223.71650801  .00003272  00000-0  22350-3 0  9995,2 52280  53.2175  13.3161 0000938  72.1517 287.9578 15.08848349 73534,6917.855,95.437,540.369,539.071,0.0
52280.0,STARLINK-3764,PAYLOAD,2023-08-12 09:05:37,15.08842932,0.0001168,53.2175,10.3419,76.3091,283.8031,6.6948e-05,7.78e-06,0.0,0 STARLINK-3764,1 52280U 22041V   23224.37890897  .00000778  00000-0  66948-4 0  9999,2 52280  53.2175  10.3419 0001168  76.3091 283.8031 15.08842932 73638,6917.871,95.437,540.544,538.928,0.0
52280.0,STARLINK-3764,PAYLOAD,2023-08-13 16:53:20,15.08841384,9.53e-05,53.2172,4.3957,78.4696,281.6403,7.8058e-05,9.55e-06,0.0,0 STARLINK-3764,1 52280U 22041V   23225.70371144  .00000955  00000-0  78058-4 0  9998,2 52280  53.2172   4.3957 0000953  78.4696 281.6403 15.08841384 73831,6917.876,95.437,540.4,539.082,0.0
52280.0,STARLINK-3764,PAYLOAD,2023-08-15 02:16:26,15.0884412,9.43e-05,53.2175,358.1508,84.5097,275.6002,0.000237,3.487e-05,0.0,0 STARLINK-3764,1 52280U 22041V   23227.09475177  .00003487  00000-0  23700-3 0  9999,2 52280  53.2175 358.1508 0000943  84.5097 275.6002 15.08844120 74041,6917.868,95.437,540.385,539.08,0.0
52280.0,STARLINK-3764,PAYLOAD,2023-08-16 11:39:32,15.08839076,0.0001223,53.2171,351.9063,84.1715,275.9416,5.8572e-05,6.44e-06,0.0,0 STARLINK-3764,1 52280U 22041V   23228.48579475  .00000644  00000-0  58572-4 0  9997,2 52280  53.2171 351.9063 0001223  84.1715 275.9416 15.08839076 74258,6917.883,95.438,540.594,538.902,0.0
